IRIDIUM 112             
1 41925U 17003J   24308.33372915  .00000051  00000+0  11094-4 0  9996
2 41925  86.3962 335.2296 0002018 101.3298 258.8125 14.34217460408580
IRIDIUM 111             
1 41926U 17003K   24308.60011728  .00001068  00000+0  37433-3 0  9992
2 41926  86.3962 335.1762 0002243  95.7566 264.3886 14.34221623408607
IRIDIUM 113             
1 42803U 17039A   24308.58007342 -.00000109  00000+0 -45979-4 0  9992
2 42803  86.4031 208.9392 0001773  92.1856 267.9542 14.34216068386538
IRIDIUM 123             
1 42804U 17039B   24308.55178916  .00001511  00000+0  53246-3 0  9997
2 42804  86.3981 240.4060 0002455  83.4527 276.6948 14.34223661385297
IRIDIUM 120             
1 42805U 17039C   24308.78306812  .00001712  00000+0  60411-3 0  9996
2 42805  86.4020 208.7141 0002151  75.6126 284.5308 14.34211907386559
IRIDIUM 115             
1 42806U 17039D   24308.48915648  .00002308  00000+0  68005-3 0  9996
2 42806  86.4559 208.8820 0002412  83.3505 276.7971 14.43276636389067
IRIDIUM 118             
1 42807U 17039E   24308.86257948  .00000057  00000+0  13186-4 0  9991
2 42807  86.3980 240.2772 0002024  83.6385 276.5041 14.34213495385346
IRIDIUM 117             
1 42808U 17039F   24308.88160618  .00001696  00000+0  59855-3 0  9993
2 42808  86.3983 240.2324 0002402  84.1417 276.0052 14.34218342385371
